STARLINK-32813          
1 62869U 25022R   26068.47026327  .00031243  00000+0  10629-2 0  9997
2 62869  53.1580 130.8391 0001390  88.0530 272.0630 15.30188357 61869
TEVEL2-6                
1 63215U 25052F   26068.64958975  .00021046  00000+0  70909-3 0  9996
2 63215  97.4016 325.0381 0004769  95.6604 264.5181 15.30760889 54861
